BEIJING 1               
1 28890U 05043A   22202.36456972  .00000244  00000+0  58660-4 0  9997
2 28890  98.1227 324.1526 0016381  70.3313 289.9670 14.61469751892090
HJ-1A                   
1 33320U 08041A   22202.54462724  .00000442  00000+0  67946-4 0  9991
2 33320  97.6749 234.0013 0022248 118.8363 241.5090 14.77875159747425
HJ-1B                   
1 33321U 08041B   22202.56083444  .00000946  00000+0  13737-3 0  9999
2 33321  97.6925 237.6506 0035100 137.2769 223.1189 14.77790907747426
YAOGAN 4                
1 33446U 08061A   22202.37727728  .00000572  00000+0  87309-4 0  9990
2 33446  97.8176 141.4760 0016955  29.0990 331.1162 14.77413345734604
DEIMOS-1                
1 35681U 09041A   22202.51879846  .00000331  00000+0  59920-4 0  9998
2 35681  97.7112  51.8418 0002820 102.1429 258.0104 14.72077146696785
UK-DMC 2                
1 35683U 09041C   22202.49127694  .00000481  00000+0  85059-4 0  9992
2 35683  97.7002  13.7281 0001604  99.4501 260.6897 14.71444886696515
RISAT 1                 
1 38248U 12017A   22202.48075569  .00002847  00000+0  16888-3 0  9992
2 38248  97.5520 213.4803 0005307 127.5361 232.6352 15.12150440563983
DMC3-FM1                
1 40715U 15032A   22202.49234969  .00000473  00000+0  65892-4 0  9999
2 40715  97.8434  88.6364 0007161  55.8422 304.3467 14.82151531378332
DMC3-FM2                
1 40716U 15032B   22202.51503179  .00000468  00000+0  65320-4 0  9995
2 40716  97.8479  89.3181 0009115  57.2687 302.9403 14.82143165378346
DMC3-FM3                
1 40717U 15032C   22202.46998461  .00000481  00000+0  66867-4 0  9994
2 40717  97.8511  90.1996 0011076  54.3512 305.8732 14.82171391378330
